NIMIQ 6                 
1 38342U 12026A   17147.57177060 -.00000186  00000-0  00000-0 0  9990
2 38342   0.0170 307.9994 0002330 102.3658 309.6585  1.00270907 17273
CHINASAT 2A (ZX 2A)     
1 38352U 12028A   17148.79787334 -.00000310  00000-0  00000-0 0  9998
2 38352   0.0529 105.5761 0002978 258.0688 268.3774  1.00272981 18227
INTELSAT 19 (IS-19)     
1 38356U 12030A   17147.85674427 -.00000070  00000-0  00000-0 0  9992
2 38356   0.0212  19.7027 0003040  46.4705 293.8608  1.00271973 17319
ECHOSTAR 17             
1 38551U 12035A   17147.61602956 -.00000088  00000-0  00000-0 0  9995
2 38551   0.0214 313.3670 0002180  98.5155 308.1371  1.00271821 17911
METEOSAT-10 (MSG-3)     
1 38552U 12035B   17148.31511477 -.00000018  00000-0  00000-0 0  9994
2 38552   0.8752 350.3516 0001575 133.6915 235.9741  1.00262745 17732
SES-5                   
1 38652U 12036A   17148.62549177  .00000018  00000-0  00000-0 0  9997
2 38652   0.0402 274.1660 0001740 135.1481  67.1785  1.00271239 17910
TIANLIAN 1-03           
1 38730U 12040A   17148.28737981  .00000057  00000-0  00000-0 0  9996
2 38730   0.1415 270.9004 0002755 188.9591 260.1727  1.00273407 15562
INTELSAT 20 (IS-20)     
1 38740U 12043A   17148.12668699 -.00000039  00000-0  00000-0 0  9993
2 38740   0.0032 348.5935 0000330 223.1353 148.2692  1.00270237 17610
HYLAS 2                 
1 38741U 12043B   17147.23336142  .00000142  00000-0  00000-0 0  9994
2 38741   0.0469 106.0165 0001679 325.4070 288.5988  1.00270714 17601
INTELSAT 21 (IS-21)     
1 38749U 12045A   17148.47724256 -.00000300  00000-0  00000-0 0  9995
2 38749   0.0152  15.7914 0001727  35.1704 309.0538  1.00271527 17398
ASTRA 2F                
1 38778U 12051A   17148.23843417  .00000135  00000-0  00000-0 0  9994
2 38778   0.0650 240.0211 0000629 332.6332 147.3427  1.00269250  8017
GSAT-10                 
1 38779U 12051B   17148.08664770 -.00000180  00000-0  00000-0 0  9992
2 38779   0.0498 117.0008 0002631 299.7913 303.2345  1.00273208 16961
INTELSAT 23 (IS-23)     
1 38867U 12057A   17148.46339491 -.00000300  00000-0  00000-0 0  9991
2 38867   0.0120 334.3793 0001547  83.6031 302.0326  1.00269797 16854
BEIDOU G6               
1 38953U 12059A   17148.93512831 -.00000193  00000-0  10000-3 0  9996
2 38953   1.6160  80.0463 0003355 164.8069  62.5029  1.00272673 16891
LUCH 5B                 
1 38977U 12061A   17148.81682517 -.00000147  00000-0  00000-0 0  9996
2 38977   3.5044  74.6227 0003672 327.3438 122.3429  1.00271304 17029
YAMAL 300K              
1 38978U 12061B   17148.71141095  .00000055  00000-0  00000-0 0  9994
2 38978   0.0092 308.2597 0001293 275.2070 102.0134  1.00271361 16717
STAR ONE C3             
1 38991U 12062A   17148.56507604 -.00000264  00000-0  00000-0 0  9998
2 38991   0.0792  93.7501 0001277 319.8264 321.1400  1.00270951 16615
EUTELSAT 21B            
1 38992U 12062B   17148.25678346  .00000115  00000-0  00000-0 0  9991
2 38992   0.0654   3.0416 0002414  65.9358 291.0493  1.00270138 16703
ECHOSTAR 16             
1 39008U 12065A   17147.48973595 -.00000294  00000-0  00000-0 0  9990
2 39008   0.0189 312.7056 0002231 111.4704 295.8470  1.00272442 16644
CHINASAT 12 (ZX 12)     
1 39017U 12067A   17148.94190709 -.00000224  00000-0  00000-0 0  9995
2 39017   0.0116  15.5788 0002694  41.9060 255.7642  1.00272338 16357
EUTELSAT 70B            
1 39020U 12069A   17148.12126238 -.00000058  00000-0  00000-0 0  9992
2 39020   0.0610   6.1226 0002630  93.6417 260.2667  1.00270827 16352
YAMAL 402               
1 39022U 12070A   17147.52828731  .00000073  00000-0  10000-3 0  9996
2 39022   0.0191 335.7677 0002084 103.6869  50.9006  1.00272718 16436
SKYNET 5D               
1 39034U 12075A   17148.87175378  .00000083  00000-0  00000-0 0  9992
2 39034   0.0686 354.5419 0003345  70.1022 188.4894  1.00271309 16360
MEXSAT 3                
1 39035U 12075B   17147.63733873 -.00000038  00000-0  00000-0 0  9997
2 39035   0.0304 221.5714 0001278 197.3176 301.1263  1.00271249 16013
TDRS 11                 
1 39070U 13004A   17148.70286271  .00000077  00000-0  00000-0 0  9995
2 39070   5.4200 328.6904 0008665 298.1750  61.6825  1.00280652 13546
AMAZONAS 3              
1 39078U 13006A   17148.48556684 -.00000298  00000-0  00000-0 0  9994
2 39078   0.0341 195.1511 0001123 253.0842 271.7776  1.00273779 15819
AZERSPACE 1             
1 39079U 13006B   17148.18916206  .00000118  00000-0  00000-0 0  9992
2 39079   0.0221  62.6966 0001880  11.8101 285.5151  1.00269021 15654
EUTELSAT 117 WEST A     
1 39122U 13012A   17147.64290900 -.00000026  00000-0  00000-0 0  9993
2 39122   0.0333  76.4334 0002669 344.4224 299.1737  1.00272335 15299
ANIK G1                 
1 39127U 13014A   17147.61651240 -.00000087  00000-0  00000-0 0  9992
2 39127   0.0219 319.8518 0001049  31.9630   8.1836  1.00269918 15106
CHINASAT 11 (ZX 11)     
1 39157U 13020A   17148.79787334 -.00000307  00000-0  00000-0 0  9991
2 39157   0.0551 117.3413 0002224 190.7338 323.6864  1.00269249 14997
EUTELSAT 7B             
1 39163U 13022A   17148.29726862  .00000033  00000-0  00000-0 0  9999
2 39163   0.0427  10.5071 0004124  16.3097 333.2053  1.00271063 14844
SES-6                   
1 39172U 13026A   17148.28636737 -.00000276  00000-0  00000-0 0  9993
2 39172   0.0216 358.5692 0001650  72.5534 237.4766  1.00269580 14572
IRNSS-1A                
1 39199U 13034A   17145.49162739  .00000113  00000-0  00000-0 0  9996
2 39199  28.7839 115.4233 0019078 189.5170 170.3643  1.00270145 14183
ALPHASAT                
1 39215U 13038A   17147.33015595  .00000124  00000-0  00000-0 0  9993
2 39215   1.6817  29.4890 0001604  26.2088 333.0456  1.00263890 10884
INSAT-3D                
1 39216U 13038B   17148.08889455 -.00000171  00000-0  00000-0 0  9994
2 39216   0.0951  96.2485 0000847 265.7739 357.9791  1.00269834 13963
EUTELSAT 25B            
1 39233U 13044A   17148.24598331  .00000128  00000-0  00000-0 0  9999
2 39233   0.0689  48.5513 0001821   4.8604 306.6059  1.00272377 13748
GSAT-7                  
1 39234U 13044B   17148.11150961 -.00000092  00000-0  00000-0 0  9990
2 39234   0.0351 265.0952 0001495  37.9151  56.9766  1.00271578 12199
AMOS-4                  
1 39237U 13045A   17148.13658090 -.00000007  00000-0  00000-0 0  9998
2 39237   0.0319 137.2854 0001188 271.8405 310.8856  1.00271905 13802
ASTRA 2E                
1 39285U 13056A   17148.23764144  .00000135  00000-0  00000-0 0  9993
2 39285   0.0678  36.3593 0002307  32.1795 291.4867  1.00274019 13317
SIRIUS FM-6             
1 39360U 13058A   17147.64089221 -.00000030  00000-0  00000-0 0  9994
2 39360   0.0221 330.5199 0001177 240.6587 148.8145  1.00270706 13015
RADUGA-1M 3             
1 39375U 13062A   17148.92618878 -.00000056  00000-0  00000-0 0  9991
2 39375   0.0006  15.9300 0003634  68.9445 205.2159  1.00272554 12974
SES-8                   
1 39460U 13071A   17148.05343707 -.00000284  00000-0  00000-0 0  9999
2 39460   0.0141 303.7910 0002506 128.3161 287.9218  1.00271812 11368
INMARSAT 5-F1           
1 39476U 13073A   17148.89011632  .00000011  00000-0  00000-0 0  9996
2 39476   0.0179 343.8055 0000685 297.0929 348.7571  1.00271211 12770
TKSAT-1 (TUPAC KATARI)  
1 39481U 13075A   17148.47525309 -.00000210  00000-0  00000-0 0  9991
2 39481   0.0053  78.7968 0002526 306.4840 304.8269  1.00272141 12430
EXPRESS-AM5             
1 39487U 13077A   17144.29169889 -.00000285  00000-0  00000-0 0  9994
2 39487   0.0061 167.1298 0000670 179.1143 140.8945  1.00271764 13174
GSAT-14                 
1 39498U 14001A   17148.11164252 -.00000092  00000-0  00000-0 0  9994
2 39498   0.0177 292.1628 0004554 136.1265 291.7607  1.00271845 12296
THAICOM 6               
1 39500U 14002A   17148.92584663 -.00000138  00000-0  00000-0 0  9991
2 39500   0.0839 116.5446 0003042 342.1396 199.7870  1.00271628 12295
TDRS 12                 
1 39504U 14004A   17147.36701611 -.00000286  00000-0  00000-0 0  9992
2 39504   6.0013 336.1243 0001319  48.1968 311.7318  1.00280417 11116
ABS-2                   
1 39508U 14006A   17147.11182738 -.00000098  00000-0  00000-0 0  9995
2 39508   0.0513  68.4783 0003102   1.4405 290.1190  1.00271383 12158
ATHENA-FIDUS            
1 39509U 14006B   17148.21186826  .00000139  00000-0  00000-0 0  9995
2 39509   0.0116 321.5564 0001159 119.6133 278.8444  1.00269629 11927
TURKSAT 4A              
1 39522U 14007A   17148.20021840  .00000131  00000-0  00000-0 0  9996
2 39522   0.0226 283.8834 0001294  65.8962  10.2188  1.00272255 12053
EXPRESS-AT1             
1 39612U 14010A   17145.98590067  .00000070  00000-0  00000-0 0  9996
2 39612   0.0004 270.3390 0000457 249.2624 135.0724  1.00272368 11863
EXPRESS-AT2             
1 39613U 14010B   17144.37248941 -.00000286  00000-0  00000-0 0  9990
2 39613   0.0091 228.5935 0000467 250.2431  37.2684  1.00270699 11682
AMAZONAS 4A             
1 39616U 14011A   17147.48820473 -.00000295  00000-0  00000-0 0  9995
2 39616   0.0942  80.6766 0005021 329.7694 309.6017  1.00271024 11536
ASTRA 5B                
1 39617U 14011B   17148.82605742  .00000138  00000-0  00000-0 0  9990
2 39617   0.0333 349.5389 0003233  72.7732 153.0927  1.00271998 11520
IRNSS-1B                
1 39635U 14017A   17147.98454676  .00000049  00000-0  00000-0 0  9991
2 39635  29.1257 295.2227 0021316 178.4777 181.4809  1.00272715 11432
LUCH 5V                 
1 39727U 14023A   17148.71365569 -.00000284  00000-0  00000-0 0  9996
2 39727   2.7433 299.0186 0002611 131.9076 167.0603  1.00266890529361
KAZSAT-3                
1 39728U 14023B   17148.15448084  .00000046  00000-0  00000-0 0  9994
2 39728   0.0100 342.9960 0000288 174.2902 202.7163  1.00270981  9297
EUTELSAT 3B             
1 39773U 14030A   17148.62549177  .00000004  00000-0  00000-0 0  9993
2 39773   0.0602   0.4634 0001788  70.2030  43.9433  1.00270835 10926
